SL-16 R/B               
1 25400U 98043G   26037.85963343  .00000125  00000+0  71086-4 0  9997
2 25400  98.8205 351.0149 0010888 102.5192 257.7206 14.26042328434599
SL-16 R/B               
1 25407U 98045B   26037.84776039 -.00000113  00000+0 -32886-4 0  9993
2 25407  71.0084 246.4338 0005290  65.6236 294.5439 14.16185266422738
ISS (ZARYA)             
1 25544U 98067A   26037.53476766  .00011792  00000+0  22585-3 0  9996
2 25544  51.6316 226.3678 0011132  70.9201 289.2992 15.48439420551502
CZ-4B R/B               
1 25732U 99025C   26037.77585862  .00000061  00000+0  50018-4 0  9994
2 25732  98.6688  82.7810 0038133  74.4463  41.2164 14.18259091383785
OKEAN-O                 
1 25860U 99039A   26037.76125035  .00001016  00000+0  14033-3 0  9999
2 25860  97.9510  97.9565 0001909  88.5086 271.6344 14.80284356429811
SL-16 R/B               
1 25861U 99039B   26037.70282733  .00000812  00000+0  10989-3 0  9992
2 25861  98.0032  96.8347 0014794   3.5112 356.6201 14.81687341432274
DELTA 2 R/B             
1 25876U 99041E   26037.43413125  .00002643  00000+0  46257-3 0  9993
2 25876  51.7644  66.0936 0502358 256.0893  98.3692 14.11709923358610
HELIOS 1B               
1 25977U 99064A   26037.70609859  .00002426  00000+0  27359-3 0  9992
2 25977  98.1725 299.0349 0001975 118.3026 241.8389 14.87568898680657
TERRA                   
1 25994U 99068A   26037.83703701  .00000641  00000+0  13977-3 0  9998
2 25994  97.9659  92.4401 0000948 286.6003 184.8907 14.60980885390572
SL-16 R/B               
1 26070U 00006B   26037.78448904 -.00000007  00000+0  20932-4 0  9990
2 26070  71.0029 162.8182 0018434 233.6478 126.2944 14.15820725344180
TITAN 4B R/B            
1 26474U 00047B   26037.75113120  .00004788  00000+0  30313-3 0  9991
2 26474  67.9894 127.4916 0037011  73.4943 287.0267 15.09305028388240
ENVISAT                 
1 27386U 02009A   26037.87922069  .00000207  00000+0  80828-4 0  9996
2 27386  98.3677 352.2205 0001288  91.1052 330.6483 14.39025268254743
