CCSDS_OMM_VERS = 2.0
CREATION_DATE  = 
ORIGINATOR     = 

OBJECT_NAME    = SL-16 R/B
OBJECT_ID      = 1998-043G
CENTER_NAME    = EARTH
REF_FRAME      = TEME
TIME_SYSTEM    = UTC
MEAN_ELEMENT_THEORY = SGP/SGP4

EPOCH          = 2026-02-06T20:37:52.328352
MEAN_MOTION    = 14.26042328
ECCENTRICITY   = .0010888
INCLINATION    = 98.8205
RA_OF_ASC_NODE = 351.0149
ARG_OF_PERICENTER = 102.5192
MEAN_ANOMALY   = 257.7206

EPHEMERIS_TYPE = 0
CLASSIFICATION_TYPE = U
NORAD_CAT_ID   = 25400
ELEMENT_SET_NO = 999
REV_AT_EPOCH   = 43459
BSTAR          = .71086E-4
MEAN_MOTION_DOT = .125E-5
MEAN_MOTION_DDOT = 0

CCSDS_OMM_VERS = 2.0
CREATION_DATE  = 
ORIGINATOR     = 

OBJECT_NAME    = SL-16 R/B
OBJECT_ID      = 1998-045B
CENTER_NAME    = EARTH
REF_FRAME      = TEME
TIME_SYSTEM    = UTC
MEAN_ELEMENT_THEORY = SGP/SGP4

EPOCH          = 2026-02-06T20:20:46.497696
MEAN_MOTION    = 14.16185266
ECCENTRICITY   = .000529
INCLINATION    = 71.0084
RA_OF_ASC_NODE = 246.4338
ARG_OF_PERICENTER = 65.6236
MEAN_ANOMALY   = 294.5439

EPHEMERIS_TYPE = 0
CLASSIFICATION_TYPE = U
NORAD_CAT_ID   = 25407
ELEMENT_SET_NO = 999
REV_AT_EPOCH   = 42273
BSTAR          = -.32886E-4
MEAN_MOTION_DOT = -.113E-5
MEAN_MOTION_DDOT = 0

CCSDS_OMM_VERS = 2.0
CREATION_DATE  = 
ORIGINATOR     = 

OBJECT_NAME    = ISS (ZARYA)
OBJECT_ID      = 1998-067A
CENTER_NAME    = EARTH
REF_FRAME      = TEME
TIME_SYSTEM    = UTC
MEAN_ELEMENT_THEORY = SGP/SGP4

EPOCH          = 2026-02-06T12:50:03.925824
MEAN_MOTION    = 15.48439420
ECCENTRICITY   = .0011132
INCLINATION    = 51.6316
RA_OF_ASC_NODE = 226.3678
ARG_OF_PERICENTER = 70.9201
MEAN_ANOMALY   = 289.2992

EPHEMERIS_TYPE = 0
CLASSIFICATION_TYPE = U
NORAD_CAT_ID   = 25544
ELEMENT_SET_NO = 999
REV_AT_EPOCH   = 55150
BSTAR          = .22585E-3
MEAN_MOTION_DOT = .11792E-3
MEAN_MOTION_DDOT = 0

CCSDS_OMM_VERS = 2.0
CREATION_DATE  = 
ORIGINATOR     = 

OBJECT_NAME    = CZ-4B R/B
OBJECT_ID      = 1999-025C
CENTER_NAME    = EARTH
REF_FRAME      = TEME
TIME_SYSTEM    = UTC
MEAN_ELEMENT_THEORY = SGP/SGP4

EPOCH          = 2026-02-06T18:37:14.184768
MEAN_MOTION    = 14.18259091
ECCENTRICITY   = .0038133
INCLINATION    = 98.6688
RA_OF_ASC_NODE = 82.7810
ARG_OF_PERICENTER = 74.4463
MEAN_ANOMALY   = 41.2164

EPHEMERIS_TYPE = 0
CLASSIFICATION_TYPE = U
NORAD_CAT_ID   = 25732
ELEMENT_SET_NO = 999
REV_AT_EPOCH   = 38378
BSTAR          = .50018E-4
MEAN_MOTION_DOT = .61E-6
MEAN_MOTION_DDOT = 0

CCSDS_OMM_VERS = 2.0
CREATION_DATE  = 
ORIGINATOR     = 

OBJECT_NAME    = OKEAN-O
OBJECT_ID      = 1999-039A
CENTER_NAME    = EARTH
REF_FRAME      = TEME
TIME_SYSTEM    = UTC
MEAN_ELEMENT_THEORY = SGP/SGP4

EPOCH          = 2026-02-06T18:16:12.030240
MEAN_MOTION    = 14.80284356
ECCENTRICITY   = .0001909
INCLINATION    = 97.9510
RA_OF_ASC_NODE = 97.9565
ARG_OF_PERICENTER = 88.5086
MEAN_ANOMALY   = 271.6344

EPHEMERIS_TYPE = 0
CLASSIFICATION_TYPE = U
NORAD_CAT_ID   = 25860
ELEMENT_SET_NO = 999
REV_AT_EPOCH   = 42981
BSTAR          = .14033E-3
MEAN_MOTION_DOT = .1016E-4
MEAN_MOTION_DDOT = 0

CCSDS_OMM_VERS = 2.0
CREATION_DATE  = 
ORIGINATOR     = 

OBJECT_NAME    = SL-16 R/B
OBJECT_ID      = 1999-039B
CENTER_NAME    = EARTH
REF_FRAME      = TEME
TIME_SYSTEM    = UTC
MEAN_ELEMENT_THEORY = SGP/SGP4

EPOCH          = 2026-02-06T16:52:04.281312
MEAN_MOTION    = 14.81687341
ECCENTRICITY   = .0014794
INCLINATION    = 98.0032
RA_OF_ASC_NODE = 96.8347
ARG_OF_PERICENTER = 3.5112
MEAN_ANOMALY   = 356.6201

EPHEMERIS_TYPE = 0
CLASSIFICATION_TYPE = U
NORAD_CAT_ID   = 25861
ELEMENT_SET_NO = 999
REV_AT_EPOCH   = 43227
BSTAR          = .10989E-3
MEAN_MOTION_DOT = .812E-5
MEAN_MOTION_DDOT = 0

CCSDS_OMM_VERS = 2.0
CREATION_DATE  = 
ORIGINATOR     = 

OBJECT_NAME    = DELTA 2 R/B
OBJECT_ID      = 1999-041E
CENTER_NAME    = EARTH
REF_FRAME      = TEME
TIME_SYSTEM    = UTC
MEAN_ELEMENT_THEORY = SGP/SGP4

EPOCH          = 2026-02-06T10:25:08.940000
MEAN_MOTION    = 14.11709923
ECCENTRICITY   = .0502358
INCLINATION    = 51.7644
RA_OF_ASC_NODE = 66.0936
ARG_OF_PERICENTER = 256.0893
MEAN_ANOMALY   = 98.3692

EPHEMERIS_TYPE = 0
CLASSIFICATION_TYPE = U
NORAD_CAT_ID   = 25876
ELEMENT_SET_NO = 999
REV_AT_EPOCH   = 35861
BSTAR          = .46256525E-3
MEAN_MOTION_DOT = .2643E-4
MEAN_MOTION_DDOT = 0

CCSDS_OMM_VERS = 2.0
CREATION_DATE  = 
ORIGINATOR     = 

OBJECT_NAME    = HELIOS 1B
OBJECT_ID      = 1999-064A
CENTER_NAME    = EARTH
REF_FRAME      = TEME
TIME_SYSTEM    = UTC
MEAN_ELEMENT_THEORY = SGP/SGP4

EPOCH          = 2026-02-06T16:56:46.918176
MEAN_MOTION    = 14.87568898
ECCENTRICITY   = .0001975
INCLINATION    = 98.1725
RA_OF_ASC_NODE = 299.0349
ARG_OF_PERICENTER = 118.3026
MEAN_ANOMALY   = 241.8389

EPHEMERIS_TYPE = 0
CLASSIFICATION_TYPE = U
NORAD_CAT_ID   = 25977
ELEMENT_SET_NO = 999
REV_AT_EPOCH   = 68065
BSTAR          = .27359E-3
MEAN_MOTION_DOT = .2426E-4
MEAN_MOTION_DDOT = 0

CCSDS_OMM_VERS = 2.0
CREATION_DATE  = 
ORIGINATOR     = 

OBJECT_NAME    = TERRA
OBJECT_ID      = 1999-068A
CENTER_NAME    = EARTH
REF_FRAME      = TEME
TIME_SYSTEM    = UTC
MEAN_ELEMENT_THEORY = SGP/SGP4

EPOCH          = 2026-02-06T20:05:19.997664
MEAN_MOTION    = 14.60980885
ECCENTRICITY   = .0000948
INCLINATION    = 97.9659
RA_OF_ASC_NODE = 92.4401
ARG_OF_PERICENTER = 286.6003
MEAN_ANOMALY   = 184.8907

EPHEMERIS_TYPE = 0
CLASSIFICATION_TYPE = U
NORAD_CAT_ID   = 25994
ELEMENT_SET_NO = 999
REV_AT_EPOCH   = 39057
BSTAR          = .13977E-3
MEAN_MOTION_DOT = .641E-5
MEAN_MOTION_DDOT = 0

CCSDS_OMM_VERS = 2.0
CREATION_DATE  = 
ORIGINATOR     = 

OBJECT_NAME    = SL-16 R/B
OBJECT_ID      = 2000-006B
CENTER_NAME    = EARTH
REF_FRAME      = TEME
TIME_SYSTEM    = UTC
MEAN_ELEMENT_THEORY = SGP/SGP4

EPOCH          = 2026-02-06T18:49:39.853056
MEAN_MOTION    = 14.15820725
ECCENTRICITY   = .0018434
INCLINATION    = 71.0029
RA_OF_ASC_NODE = 162.8182
ARG_OF_PERICENTER = 233.6478
MEAN_ANOMALY   = 126.2944

EPHEMERIS_TYPE = 0
CLASSIFICATION_TYPE = U
NORAD_CAT_ID   = 26070
ELEMENT_SET_NO = 999
REV_AT_EPOCH   = 34418
BSTAR          = .20932E-4
MEAN_MOTION_DOT = -.7E-7
MEAN_MOTION_DDOT = 0

CCSDS_OMM_VERS = 2.0
CREATION_DATE  = 
ORIGINATOR     = 

OBJECT_NAME    = TITAN 4B R/B
OBJECT_ID      = 2000-047B
CENTER_NAME    = EARTH
REF_FRAME      = TEME
TIME_SYSTEM    = UTC
MEAN_ELEMENT_THEORY = SGP/SGP4

EPOCH          = 2026-02-06T18:01:37.735680
MEAN_MOTION    = 15.09305028
ECCENTRICITY   = .0037011
INCLINATION    = 67.9894
RA_OF_ASC_NODE = 127.4916
ARG_OF_PERICENTER = 73.4943
MEAN_ANOMALY   = 287.0267

EPHEMERIS_TYPE = 0
CLASSIFICATION_TYPE = U
NORAD_CAT_ID   = 26474
ELEMENT_SET_NO = 999
REV_AT_EPOCH   = 38824
BSTAR          = .30313E-3
MEAN_MOTION_DOT = .4788E-4
MEAN_MOTION_DDOT = 0

CCSDS_OMM_VERS = 2.0
CREATION_DATE  = 
ORIGINATOR     = 

OBJECT_NAME    = ENVISAT
OBJECT_ID      = 2002-009A
CENTER_NAME    = EARTH
REF_FRAME      = TEME
TIME_SYSTEM    = UTC
MEAN_ELEMENT_THEORY = SGP/SGP4

EPOCH          = 2026-02-06T21:06:04.667616
MEAN_MOTION    = 14.39025268
ECCENTRICITY   = .0001288
INCLINATION    = 98.3677
RA_OF_ASC_NODE = 352.2205
ARG_OF_PERICENTER = 91.1052
MEAN_ANOMALY   = 330.6483

EPHEMERIS_TYPE = 0
CLASSIFICATION_TYPE = U
NORAD_CAT_ID   = 27386
ELEMENT_SET_NO = 999
REV_AT_EPOCH   = 25474
BSTAR          = .80828E-4
MEAN_MOTION_DOT = .207E-5
MEAN_MOTION_DDOT = 0

